COMMENT,ORIGINATOR,NORAD_CAT_ID,OBJECT_NAME,OBJECT_TYPE,CLASSIFICATION_TYPE,INTLDES,EPOCH,EPOCH_MICROSECONDS,MEAN_MOTION,ECCENTRICITY,INCLINATION,RA_OF_ASC_NODE,ARG_OF_PERICENTER,MEAN_ANOMALY,EPHEMERIS_TYPE,ELEMENT_SET_NO,REV_AT_EPOCH,BSTAR,MEAN_MOTION_DOT,MEAN_MOTION_DDOT,FILE,TLE_LINE0,TLE_LINE1,TLE_LINE2,OBJECT_ID,OBJECT_NUMBER,SEMIMAJOR_AXIS,PERIOD,APOGEE,PERIGEE,DECAYED
GENERATED VIA SPACETRACK.ORG API,18 SPCS,29162,EUTE 113 WEST A(SATMEX 6,PAYLOAD,U,06020A,2024-03-02 21:40:33,307392,1.00274648,0.0003135,0.2034,99.5642,243.847,30.0054,0,999,6508,0,-0.00000029,0,4204905,0 EUTE 113 WEST A(SATMEX 6,1 29162U 06020A   24062.90316328 -.00000029  00000-0  00000-0 0  9996,2 29162   0.2034  99.5642 0003135 243.8470  30.0054  1.00274648 65089,2006-020A,29162,42163.929,1436.056,35799.013,35772.576,0
GENERATED VIA SPACETRACK.ORG API,18 SPCS,29055,ASTRA 1KR,PAYLOAD,U,06012A,2024-03-02 21:07:42,849120,1.00273232,0.0002889,0.0821,280.2232,14.4689,202.5668,0,999,3733,0,0.00000129,0,4204905,0 ASTRA 1KR,1 29055U 06012A   24062.88035705  .00000129  00000-0  00000-0 0  9992,2 29055   0.0821 280.2232 0002889  14.4689 202.5668  1.00273232 37337,2006-012A,29055,42164.326,1436.076,35798.373,35774.010,0
GENERATED VIA SPACETRACK.ORG API,18 SPCS,41469,IRNSS 1G,PAYLOAD,U,16027A,2024-03-02 21:06:50,762880,1.0027068,0.0005002,3.2041,123.217,289.9863,194.1611,0,999,2879,0,-0.00000327,0,4204905,0 IRNSS 1G,1 41469U 16027A   24062.87975420 -.00000327  00000-0  00000-0 0  9999,2 41469   3.2041 123.2170 0005002 289.9863 194.1611  1.00270680 28797,2016-027A,41469,42165.042,1436.113,35807.998,35765.816,0
GENERATED VIA SPACETRACK.ORG API,18 SPCS,41384,IRNSS 1F,PAYLOAD,U,16015A,2024-03-02 20:57:42,696576,1.00275456,0.0020378,3.3227,121.9075,190.3156,195.7898,0,999,2928,0,0.00000167,0,4204905,0 IRNSS 1F,1 41384U 16015A   24062.87341084  .00000167  00000-0  00000-0 0  9996,2 41384   3.3227 121.9075 0020378 190.3156 195.7898  1.00275456 29287,2016-015A,41384,42163.703,1436.044,35871.489,35699.647,0
GENERATED VIA SPACETRACK.ORG API,18 SPCS,44066,S5 DEB,DEBRIS,U,19009E,2024-03-02 20:02:09,615264,0.98987938,0.0005837,4.4333,80.7784,196.4405,163.7742,0,999,1808,0,-0.00000223,0,4204905,0 S5 DEB,1 44066U 19009E   24062.83483351 -.00000223  00000-0  00000-0 0  9996,2 44066   4.4333  80.7784 0005837 196.4405 163.7742  0.98987938 18083,2019-009E,44066,42528.525,1454.723,36175.214,36125.566,0
GENERATED VIA SPACETRACK.ORG API,18 SPCS,44066,S5 DEB,DEBRIS,U,19009E,2024-03-02 20:02:09,615264,0.98987938,0.0005837,4.4333,80.7784,196.4405,163.7742,0,999,1808,0,-0.00000223,0,4204931,0 S5 DEB,1 44066U 19009E   24062.83483351 -.00000223  00000-0  00000+0 0  9995,2 44066   4.4333  80.7784 0005837 196.4405 163.7742  0.98987938 18083,2019-009E,44066,42528.525,1454.723,36175.214,36125.566,0
GENERATED VIA SPACETRACK.ORG API,18 SPCS,44066,S5 DEB,DEBRIS,U,19009E,2024-03-02 20:02:09,260160,0.98987978,0.0005849,4.4333,80.7782,196.4907,163.7238,0,999,1808,0,-0.00000223,0,4206173,0 S5 DEB,1 44066U 19009E   24062.83482940 -.00000223  00000-0  00000-0 0  9999,2 44066   4.4333  80.7782 0005849 196.4907 163.7238  0.98987978 18085,2019-009E,44066,42528.514,1454.722,36175.254,36125.504,0
GENERATED VIA SPACETRACK.ORG API,18 SPCS,25001,TITAN 3C TRANSTAGE DEB,DEBRIS,U,68081H,2024-03-02 18:11:42,507168,1.01697211,0.0068507,1.0334,346.6139,39.3456,126.704,0,999,10981,0,-0.00000264,0,4204905,0 TITAN 3C TRANSTAGE DEB,1 25001U 68081H   24062.75813087 -.00000264  00000-0  00000-0 0  9997,2 25001   1.0334 346.6139 0068507  39.3456 126.7040  1.01697211109816,1968-081H,25001,41769.808,1415.968,35677.825,35105.521,0
GENERATED VIA SPACETRACK.ORG API,18 SPCS,43453,TITAN 3C TRANSTAGE DEB,DEBRIS,U,69013L,2024-03-02 17:52:18,533280,1.07400399,0.0667607,1.7447,233.014,213.2513,141.7021,0,999,2305,0,-0.0000004,0,4206173,0 TITAN 3C TRANSTAGE DEB,1 43453U 69013L   24062.74465895 -.00000040  00000-0  00000-0 0  9995,2 43453   1.7447 233.0140 0667607 213.2513 141.7021  1.07400399 23055,1969-013L,43453,40277.692,1340.777,36588.524,31210.590,0
GENERATED VIA SPACETRACK.ORG API,18 SPCS,43453,TITAN 3C TRANSTAGE DEB,DEBRIS,U,69013L,2024-03-02 17:52:18,98688,1.0740045,0.0666846,1.7448,233.0215,213.2823,141.6729,0,999,2305,0,-0.0000004,0,4206277,0 TITAN 3C TRANSTAGE DEB,1 43453U 69013L   24062.74465392 -.00000040  00000-0  00000+0 0  9996,2 43453   1.7448 233.0215 0666846 213.2823 141.6729  1.07400450 23059,1969-013L,43453,40277.679,1340.777,36585.445,31213.643,0
GENERATED VIA SPACETRACK.ORG API,18 SPCS,43453,TITAN 3C TRANSTAGE DEB,DEBRIS,U,69013L,2024-03-02 17:52:18,98688,1.0740045,0.0666846,1.7448,233.0215,213.2823,141.6729,0,999,2305,0,-0.0000004,0,4206364,0 TITAN 3C TRANSTAGE DEB,1 43453U 69013L   24062.74465392 -.00000040  00000-0  00000-0 0  9997,2 43453   1.7448 233.0215 0666846 213.2823 141.6729  1.07400450 23059,1969-013L,43453,40277.679,1340.777,36585.445,31213.643,0
GENERATED VIA SPACETRACK.ORG API,18 SPCS,43453,TITAN 3C TRANSTAGE DEB,DEBRIS,U,69013L,2024-03-02 17:52:15,393504,1.07400903,0.0667193,1.7449,233.0167,213.2702,141.6839,0,999,2305,0,-0.0000004,0,4205844,0 TITAN 3C TRANSTAGE DEB,1 43453U 69013L   24062.74462261 -.00000040  00000-0  00000+0 0  9998,2 43453   1.7449 233.0167 0667193 213.2702 141.6839  1.07400903 23053,1969-013L,43453,40277.566,1340.771,36586.722,31212.140,0
GENERATED VIA SPACETRACK.ORG API,18 SPCS,41469,IRNSS 1G,PAYLOAD,U,16027A,2024-03-02 17:40:44,819904,1.00270758,0.0004997,3.2038,123.2229,289.9626,142.5135,0,999,2878,0,-0.00000326,0,4204599,0 IRNSS 1G,1 41469U 16027A   24062.73662986 -.00000326  00000-0  00000+0 0  9992,2 41469   3.2038 123.2229 0004997 289.9626 142.5135  1.00270758 28780,2016-027A,41469,42165.020,1436.112,35807.955,35765.815,0
GENERATED VIA SPACETRACK.ORG API,18 SPCS,20253,FLTSATCOM 8 (USA 46),PAYLOAD,U,89077A,2024-03-02 16:55:42,663360,1.0027535,0.0006774,12.6671,356.2095,349.427,195.1141,0,999,25221,0,-0.00000354,0,4204702,0 FLTSATCOM 8 (USA 46),1 20253U 89077A   24062.70535490 -.00000354  00000-0  00000+0 0  9992,2 20253  12.6671 356.2095 0006774 349.4270 195.1141  1.00275350252217,1989-077A,20253,42163.733,1436.046,35814.159,35757.036,0
GENERATED VIA SPACETRACK.ORG API,18 SPCS,20253,FLTSATCOM 8 (USA 46),PAYLOAD,U,89077A,2024-03-02 16:55:42,663360,1.0027535,0.0006774,12.6671,356.2095,349.427,195.1141,0,999,25223,0,-0.00000354,0,4204905,0 FLTSATCOM 8 (USA 46),1 20253U 89077A   24062.70535490 -.00000354  00000-0  00000-0 0  9993,2 20253  12.6671 356.2095 0006774 349.4270 195.1141  1.00275350252239,1989-077A,20253,42163.733,1436.046,35814.159,35757.036,0
GENERATED VIA SPACETRACK.ORG API,18 SPCS,28945,SPAINSAT,PAYLOAD,U,06007A,2024-03-02 15:16:17,89824,1.00273552,0.000321,0.053,255.4164,64.0382,40.508,0,999,6582,0,-0.00000206,0,4204786,0 SPAINSAT,1 28945U 06007A   24062.63630891 -.00000206  00000-0  00000+0 0  9999,2 28945   0.0530 255.4164 0003210  64.0382  40.5080  1.00273552 65827,2006-007A,28945,42164.237,1436.072,35799.636,35772.567,0
GENERATED VIA SPACETRACK.ORG API,18 SPCS,28945,SPAINSAT,PAYLOAD,U,06007A,2024-03-02 15:16:17,89824,1.00273552,0.000321,0.053,255.4164,64.0382,40.508,0,999,6582,0,-0.00000206,0,4204905,0 SPAINSAT,1 28945U 06007A   24062.63630891 -.00000206  00000-0  00000-0 0  9990,2 28945   0.0530 255.4164 0003210  64.0382  40.5080  1.00273552 65827,2006-007A,28945,42164.237,1436.072,35799.636,35772.567,0
GENERATED VIA SPACETRACK.ORG API,18 SPCS,28945,SPAINSAT,PAYLOAD,U,06007A,2024-03-02 15:16:17,249664,1.00273446,0.0003168,0.0531,254.0425,67.0045,38.9166,0,999,6583,0,-0.00000206,0,4206173,0 SPAINSAT,1 28945U 06007A   24062.63631076 -.00000206  00000-0  00000-0 0  9996,2 28945   0.0531 254.0425 0003168  67.0045  38.9166  1.00273446 65833,2006-007A,28945,42164.266,1436.073,35799.489,35772.774,0
GENERATED VIA SPACETRACK.ORG API,18 SPCS,43162,SBIRS GEO 3 (USA 282),PAYLOAD,U,18009A,2024-03-02 15:05:00,269376,1.00272196,0.0001862,2.4925,331.7852,20.0431,235.899,0,999,2245,0,0.0000014,0,4204354,0 SBIRS GEO 3 (USA 282),1 43162U 18009A   24062.62847534  .00000140  00000-0  00000-0 0  9992,2 43162   2.4925 331.7852 0001862  20.0431 235.8990  1.00272196 22453,2018-009A,43162,42164.617,1436.091,35794.333,35778.631,0
GENERATED VIA SPACETRACK.ORG API,18 SPCS,29162,EUTE 113 WEST A(SATMEX 6,PAYLOAD,U,06020A,2024-03-02 14:09:37,163808,1.00274615,0.0003131,0.2025,99.6066,243.5532,277.211,0,999,6508,0,-0.00000028,0,4204354,0 EUTE 113 WEST A(SATMEX 6,1 29162U 06020A   24062.59001347 -.00000028  00000-0  00000-0 0  9992,2 29162   0.2025  99.6066 0003131 243.5532 277.2110  1.00274615 65084,2006-020A,29162,42163.939,1436.056,35799.005,35772.602,0
GENERATED VIA SPACETRACK.ORG API,18 SPCS,41937,SBIRS GEO 4 (USA 273),PAYLOAD,U,17004A,2024-03-02 13:33:16,949664,1.00271661,0.0002375,1.4565,349.6146,354.8186,282.9021,0,999,2621,0,-0.00000132,0,4204354,0 SBIRS GEO 4 (USA 273),1 41937U 17004A   24062.56477951 -.00000132  00000-0  00000-0 0  9991,2 41937   1.4565 349.6146 0002375 354.8186 282.9021  1.00271661 26211,2017-004A,41937,42164.767,1436.099,35796.646,35776.618,0
GENERATED VIA SPACETRACK.ORG API,18 SPCS,44307,YAMAL 601,PAYLOAD,U,19031A,2024-03-02 12:36:42,776640,1.0027375,0.0002489,0.0096,173.2697,180.0366,45.6609,0,999,1752,0,0.0000013,0,4204354,0 YAMAL 601,1 44307U 19031A   24062.52549510  .00000130  00000-0  00000-0 0  9991,2 44307   0.0096 173.2697 0002489 180.0366  45.6609  1.00273750 17527,2019-031A,44307,42164.181,1436.069,35796.541,35775.551,0
GENERATED VIA SPACETRACK.ORG API,18 SPCS,41469,IRNSS 1G,PAYLOAD,U,16027A,2024-03-02 12:26:42,750240,1.00270876,0.0004991,3.2033,123.2325,289.9219,63.8216,0,999,2878,0,-0.00000326,0,4204354,0 IRNSS 1G,1 41469U 16027A   24062.51855035 -.00000326  00000-0  00000-0 0  9998,2 41469   3.2033 123.2325 0004991 289.9219  63.8216  1.00270876 28780,2016-027A,41469,42164.987,1436.110,35807.896,35765.807,0
